{
  "type": "FeatureCollection",
  "features": [
    {
      "type": "Feature",
      "properties": {
        "norad_id": 65943,
        "name": "E-KAGAKU-1",
        "group": "stations",
        "lat": 48.27843210779548,
        "lon": -120.87973246711191,
        "alt_km": 386.3417288999044,
        "timestamp": "2025-12-05T11:32:54.828982+00:00",
        "meta_object_name": "E-KAGAKU-1",
        "meta_object_id": "1998-067XQ",
        "meta_epoch": "2025-12-02T21:39:34.941600",
        "meta_mean_motion": 15.57714998,
        "meta_eccentricity": 0.00035202,
        "meta_inclination": 51.6296,
        "meta_ra_of_asc_node": 189.358,
        "meta_arg_of_pericenter": 147.4331,
        "meta_mean_anomaly": 212.6879,
        "meta_ephemeris_type": 0,
        "meta_classification_type": "U",
        "meta_norad_cat_id": 65943,
        "meta_element_set_no": 999,
        "meta_rev_at_epoch": 832,
        "meta_bstar": 0.00096701912,
        "meta_mean_motion_dot": 0.00073283,
        "meta_mean_motion_ddot": 0,
        "tle_line1": "1 65943U 98067XQ  25336.90248775  .00073283  00000+0  96702-3 0  9997",
        "tle_line2": "2 65943  51.6296 189.3580 0003520 147.4331 212.6879 15.57714998  8329"
      },
      "geometry": {
        "type": "Point",
        "coordinates": [
          -120.87973246711191,
          48.27843210779548
        ]
      }
    },
    {
      "type": "Feature",
      "properties": {
        "norad_id": 66052,
        "name": "HRC MONOBLOCK CAMERA",
        "group": "stations",
        "lat": -6.170972314544349,
        "lon": 2.5923124294637354,
        "alt_km": 405.70923671097717,
        "timestamp": "2025-12-05T11:32:54.828992+00:00",
        "meta_object_name": "HRC MONOBLOCK CAMERA",
        "meta_object_id": "1998-067XR",
        "meta_epoch": "2025-12-04T14:40:20.041248",
        "meta_mean_motion": 15.53353663,
        "meta_eccentricity": 0.0004308,
        "meta_inclination": 51.6287,
        "meta_ra_of_asc_node": 182.0122,
        "meta_arg_of_pericenter": 151.4621,
        "meta_mean_anomaly": 208.6606,
        "meta_ephemeris_type": 0,
        "meta_classification_type": "U",
        "meta_norad_cat_id": 66052,
        "meta_element_set_no": 999,
        "meta_rev_at_epoch": 757,
        "meta_bstar": 0.00089797,
        "meta_mean_motion_dot": 0.00057752,
        "meta_mean_motion_ddot": 0,
        "tle_line1": "1 66052U 98067XR  25338.61134307  .00057752  00000+0  89797-3 0  9993",
        "tle_line2": "2 66052  51.6287 182.0122 0004308 151.4621 208.6606 15.53353663  7578"
      },
      "geometry": {
        "type": "Point",
        "coordinates": [
          2.5923124294637354,
          -6.170972314544349
        ]
      }
    },
    {
      "type": "Feature",
      "properties": {
        "norad_id": 66174,
        "name": "HTV-X1",
        "group": "stations",
        "lat": -11.09508554076557,
        "lon": 7.352520461308866,
        "alt_km": 418.33757833057916,
        "timestamp": "2025-12-05T11:32:54.829002+00:00",
        "meta_object_name": "HTV-X1",
        "meta_object_id": "2025-241A",
        "meta_epoch": "2025-12-04T13:02:29.700384",
        "meta_mean_motion": 15.49306035,
        "meta_eccentricity": 0.00035956,
        "meta_inclination": 51.6299,
        "meta_ra_of_asc_node": 183.0583,
        "meta_arg_of_pericenter": 202.7086,
        "meta_mean_anomaly": 157.3744,
        "meta_ephemeris_type": 0,
        "meta_classification_type": "U",
        "meta_norad_cat_id": 66174,
        "meta_element_set_no": 999,
        "meta_rev_at_epoch": 51,
        "meta_bstar": 0.00029317999,
        "meta_mean_motion_dot": 0.0001591,
        "meta_mean_motion_ddot": 0,
        "tle_line1": "1 66174U 25241A   25338.54339931  .00015910  00000+0  29318-3 0  9997",
        "tle_line2": "2 66174  51.6299 183.0583 0003595 202.7086 157.3744 15.49306035   516"
      },
      "geometry": {
        "type": "Point",
        "coordinates": [
          7.352520461308866,
          -11.09508554076557
        ]
      }
    },
    {
      "type": "Feature",
      "properties": {
        "norad_id": 66515,
        "name": "SZ-21 MODULE",
        "group": "stations",
        "lat": -21.738760642098978,
        "lon": -92.86373376258662,
        "alt_km": 379.8759498529971,
        "timestamp": "2025-12-05T11:32:54.829017+00:00",
        "meta_object_name": "SZ-21 MODULE",
        "meta_object_id": "2025-246C",
        "meta_epoch": "2025-12-04T13:09:11.346336",
        "meta_mean_motion": 15.61898737,
        "meta_eccentricity": 0.000593,
        "meta_inclination": 41.4775,
        "meta_ra_of_asc_node": 65.9946,
        "meta_arg_of_pericenter": 213.3987,
        "meta_mean_anomaly": 146.6479,
        "meta_ephemeris_type": 0,
        "meta_classification_type": "U",
        "meta_norad_cat_id": 66515,
        "meta_element_set_no": 999,
        "meta_rev_at_epoch": 316,
        "meta_bstar": 0.00052183,
        "meta_mean_motion_dot": 0.00046665,
        "meta_mean_motion_ddot": 0,
        "tle_line1": "1 66515U 25246C   25338.54804799  .00046665  00000+0  52183-3 0  9997",
        "tle_line2": "2 66515  41.4775  65.9946 0005930 213.3987 146.6479 15.61898737  3164"
      },
      "geometry": {
        "type": "Point",
        "coordinates": [
          -92.86373376258662,
          -21.738760642098978
        ]
      }
    },
    {
      "type": "Feature",
      "properties": {
        "norad_id": 66645,
        "name": "SHENZHOU-22",
        "group": "stations",
        "lat": 20.23579529288859,
        "lon": 85.42937018184526,
        "alt_km": 384.27199705668136,
        "timestamp": "2025-12-05T11:32:54.829028+00:00",
        "meta_object_name": "SHENZHOU-22",
        "meta_object_id": "2025-272A",
        "meta_epoch": "2025-12-04T15:25:24.990240",
        "meta_mean_motion": 15.58669844,
        "meta_eccentricity": 0.00099747,
        "meta_inclination": 41.4682,
        "meta_ra_of_asc_node": 65.8455,
        "meta_arg_of_pericenter": 328.5002,
        "meta_mean_anomaly": 31.5238,
        "meta_ephemeris_type": 0,
        "meta_classification_type": "U",
        "meta_norad_cat_id": 66645,
        "meta_element_set_no": 999,
        "meta_rev_at_epoch": 26279,
        "meta_bstar": 0.00047697443,
        "meta_mean_motion_dot": 0.00037639,
        "meta_mean_motion_ddot": 0,
        "tle_line1": "1 66645U 25272A   25338.64265035  .00037639  00000+0  47697-3 0  9990",
        "tle_line2": "2 66645  41.4682  65.8455 0009974 328.5002  31.5238 15.58669844262790"
      },
      "geometry": {
        "type": "Point",
        "coordinates": [
          85.42937018184526,
          20.23579529288859
        ]
      }
    },
    {
      "type": "Feature",
      "properties": {
        "norad_id": 66646,
        "name": "CZ-2F R/B",
        "group": "stations",
        "lat": -20.6952891898465,
        "lon": 30.87265834665646,
        "alt_km": 283.6049196503827,
        "timestamp": "2025-12-05T11:32:54.829038+00:00",
        "meta_object_name": "CZ-2F R/B",
        "meta_object_id": "2025-272B",
        "meta_epoch": "2025-11-26T11:17:54.506400",
        "meta_mean_motion": 16.01945612,
        "meta_eccentricity": 0.01210796,
        "meta_inclination": 41.4431,
        "meta_ra_of_asc_node": 114.9009,
        "meta_arg_of_pericenter": 133.7676,
        "meta_mean_anomaly": 227.3272,
        "meta_ephemeris_type": 0,
        "meta_classification_type": "U",
        "meta_norad_cat_id": 66646,
        "meta_element_set_no": 999,
        "meta_rev_at_epoch": 21,
        "meta_bstar": 0.00029319366,
        "meta_mean_motion_dot": 0.00449059,
        "meta_mean_motion_ddot": 7.567612e-06,
        "tle_line1": "1 66646U 25272B   25330.47076975  .00449059  75676-5  29319-3 0  9998",
        "tle_line2": "2 66646  41.4431 114.9009 0121079 133.7676 227.3272 16.01945612   217"
      },
      "geometry": {
        "type": "Point",
        "coordinates": [
          30.87265834665646,
          -20.6952891898465
        ]
      }
    },
    {
      "type": "Feature",
      "properties": {
        "norad_id": 66664,
        "name": "SOYUZ-MS 28",
        "group": "stations",
        "lat": -11.095085999812554,
        "lon": 7.352520840324197,
        "alt_km": 418.3369140148243,
        "timestamp": "2025-12-05T11:32:54.829048+00:00",
        "meta_object_name": "SOYUZ-MS 28",
        "meta_object_id": "2025-275A",
        "meta_epoch": "2025-12-04T13:02:29.700384",
        "meta_mean_motion": 15.49306035,
        "meta_eccentricity": 0.0003596,
        "meta_inclination": 51.6299,
        "meta_ra_of_asc_node": 183.0583,
        "meta_arg_of_pericenter": 202.7086,
        "meta_mean_anomaly": 157.3744,
        "meta_ephemeris_type": 0,
        "meta_classification_type": "U",
        "meta_norad_cat_id": 66664,
        "meta_element_set_no": 999,
        "meta_rev_at_epoch": 117,
        "meta_bstar": 0.00029318,
        "meta_mean_motion_dot": 0.0001591,
        "meta_mean_motion_ddot": 0,
        "tle_line1": "1 66664U 25275A   25338.54339931  .00015910  00000+0  29318-3 0  9998",
        "tle_line2": "2 66664  51.6299 183.0583 0003596 202.7086 157.3744 15.49306035  1174"
      },
      "geometry": {
        "type": "Point",
        "coordinates": [
          7.352520840324197,
          -11.095085999812554
        ]
      }
    }
  ]
}